# STARLINK-1001 (44932)
1 44932U 20001U   25201.41009700  .14655795  12573-4  24213-3 0  9995
2 44932  53.0225 196.8709 0004882 264.2908 267.1656 16.47864835307638

# COSMOS-2542 (44797)
1 44797U 19079A   23297.28905491  .21005952  26941-5  61130-3 0  9993
2 44797  97.6266  44.4193 0008677 275.2643 144.6242 16.44689753216411

# USA-245 (39232)


